[{"OBJECT_NAME":"STARLINK-5175","OBJECT_ID":"2022-136AE","EPOCH":"2026-03-09T23:20:47.785920","MEAN_MOTION":15.08842203,"ECCENTRICITY":0.00013466,"INCLINATION":53.2192,"RA_OF_ASC_NODE":333.079,"ARG_OF_PERICENTER":88.7025,"MEAN_ANOMALY":271.4122,"EPHEMERIS_TYPE":0,"CLASSIFICATION_TYPE":"U","NORAD_CAT_ID":54079,"ELEMENT_SET_NO":999,"REV_AT_EPOCH":18702,"BSTAR":-3.1000387e-5,"MEAN_MOTION_DOT":-7.81e-6,"MEAN_MOTION_DDOT":0},{"OBJECT_NAME":"DELTA 1 DEB","OBJECT_ID":"1972-058BG","EPOCH":"2026-03-09T20:01:49.581696","MEAN_MOTION":14.88535429,"ECCENTRICITY":0.00965988,"INCLINATION":98.8237,"RA_OF_ASC_NODE":167.9558,"ARG_OF_PERICENTER":346.289,"MEAN_ANOMALY":13.5703,"EPHEMERIS_TYPE":0,"CLASSIFICATION_TYPE":"U","NORAD_CAT_ID":7890,"ELEMENT_SET_NO":999,"REV_AT_EPOCH":62566,"BSTAR":0.0011014398,"MEAN_MOTION_DOT":0.00011112,"MEAN_MOTION_DDOT":0}]
